NORAD_CAT_ID,OBJECT_NAME,OBJECT_TYPE,EPOCH,MEAN_MOTION,ECCENTRICITY,INCLINATION,RA_OF_ASC_NODE,ARG_OF_PERICENTER,MEAN_ANOMALY,BSTAR,MEAN_MOTION_DOT,MEAN_MOTION_DDOT,TLE_LINE0,TLE_LINE1,TLE_LINE2,SEMIMAJOR_AXIS,PERIOD,APOGEE,PERIGEE,DECAYED
51462.0,STARLINK-3166,PAYLOAD,2023-06-03 08:11:11,15.08839438,0.000115,53.216,134.7585,84.4437,275.6687,7.2344e-05,8.64e-06,0.0,0 STARLINK-3166,1 51462U 22010G   23154.34111010  .00000864  00000-0  72344-4 0  9991,2 51462  53.2160 134.7585 0001150  84.4437 275.6687 15.08839438 74761,6917.882,95.438,540.543,538.952,0.0
51462.0,STARLINK-3166,PAYLOAD,2023-06-03 16:08:07,15.08838338,0.0001161,53.2159,133.2718,83.624,276.4885,3.9625e-05,3.43e-06,0.0,0 STARLINK-3166,1 51462U 22010G   23154.67231178  .00000343  00000-0  39625-4 0  9992,2 51462  53.2159 133.2718 0001161  83.6240 276.4885 15.08838338 74347,6917.885,95.438,540.554,538.947,0.0
51462.0,STARLINK-3166,PAYLOAD,2023-06-04 04:51:12,15.08839536,0.0001156,53.2161,130.8915,90.2435,269.869,3.5783e-06,-2.31e-06,0.0,0 STARLINK-3166,1 51462U 22010G   23155.20223212 -.00000231  00000-0  35783-5 0  9991,2 51462  53.2161 130.8915 0001156  90.2435 269.8690 15.08839536 74426,6917.882,95.438,540.547,538.947,0.0
51462.0,STARLINK-3166,PAYLOAD,2023-06-04 22:20:27,15.08838651,0.0001163,53.2161,127.6204,90.3083,269.8042,4.5504e-05,4.36e-06,0.0,0 STARLINK-3166,1 51462U 22010G   23155.93087138  .00000436  00000-0  45504-4 0  9993,2 51462  53.2161 127.6204 0001163  90.3083 269.8042 15.08838651 74539,6917.885,95.438,540.554,538.945,0.0
51462.0,STARLINK-3166,PAYLOAD,2023-06-05 04:41:59,15.08841921,0.0001219,53.2162,126.4306,94.0006,266.1125,7.314e-05,8.76e-06,0.0,0 STARLINK-3166,1 51462U 22010G   23156.19582835  .00000876  00000-0  73140-4 0  9991,2 51462  53.2162 126.4306 0001219  94.0006 266.1125 15.08841921 75041,6917.875,95.437,540.583,538.896,0.0
51462.0,STARLINK-3166,PAYLOAD,2023-06-05 07:52:45,15.08841561,0.0001232,53.2164,125.8363,93.7254,266.3879,6.704e-05,7.79e-06,0.0,0 STARLINK-3166,1 51462U 22010G   23156.32830875  .00000779  00000-0  67040-4 0  9990,2 51462  53.2164 125.8363 0001232  93.7254 266.3879 15.08841561 74592,6917.876,95.437,540.593,538.888,0.0
51462.0,STARLINK-3166,PAYLOAD,2023-06-05 22:11:14,15.08833771,0.0001248,53.2159,123.1598,94.6572,265.4562,1.1726e-05,-1.01e-06,0.0,0 STARLINK-3166,1 51462U 22010G   23156.92447683 -.00000101  00000-0  11726-4 0  9997,2 51462  53.2159 123.1598 0001248  94.6572 265.4562 15.08833771 74680,6917.899,95.438,540.628,538.901,0.0
51462.0,STARLINK-3166,PAYLOAD,2023-06-06 01:22:01,15.08833054,0.0001257,53.2161,122.565,94.9124,265.2012,3.3788e-06,-2.34e-06,0.0,0 STARLINK-3166,1 51462U 22010G   23157.05695797 -.00000234  00000-0  33788-5 0  9993,2 51462  53.2161 122.5650 0001257  94.9124 265.2012 15.08833054 75178,6917.902,95.438,540.636,538.897,0.0
51462.0,STARLINK-3166,PAYLOAD,2023-06-06 07:43:33,15.08835593,0.0001304,53.2168,121.3764,94.4304,265.6837,2.349e-05,8.6e-07,0.0,0 STARLINK-3166,1 51462U 22010G   23157.32191667  .00000086  00000-0  23490-4 0  9992,2 51462  53.2168 121.3764 0001304  94.4304 265.6837 15.08835593 74747,6917.894,95.438,540.661,538.857,0.0
51462.0,STARLINK-3166,PAYLOAD,2023-06-06 22:02:01,15.08837208,0.0001245,53.2168,118.7011,93.8915,266.2219,2.6792e-05,1.39e-06,0.0,0 STARLINK-3166,1 51462U 22010G   23157.91807706  .00000139  00000-0  26792-4 0  9992,2 51462  53.2168 118.7011 0001245  93.8915 266.2219 15.08837208 74833,6917.889,95.438,540.615,538.893,0.0
51462.0,STARLINK-3166,PAYLOAD,2023-06-07 01:12:47,15.08840412,0.0001213,53.2163,118.1058,91.0357,269.0774,5.3883e-05,5.7e-06,0.0,0 STARLINK-3166,1 51462U 22010G   23158.05055423  .00000570  00000-0  53883-4 0  9999,2 51462  53.2163 118.1058 0001213  91.0357 269.0774 15.08840412 75321,6917.879,95.438,540.583,538.905,0.0
51462.0,STARLINK-3166,PAYLOAD,2023-06-07 07:34:20,15.08845445,0.0001206,53.2165,116.9165,88.7853,271.3277,8.9852e-05,1.143e-05,0.0,0 STARLINK-3166,1 51462U 22010G   23158.31551006  .00001143  00000-0  89852-4 0  9998,2 51462  53.2165 116.9165 0001206  88.7853 271.3277 15.08845445 74890,6917.864,95.437,540.563,538.894,0.0
51462.0,STARLINK-3166,PAYLOAD,2023-06-08 01:03:35,15.08833201,0.0001228,53.2168,113.646,85.1147,274.9985,3.328e-05,2.42e-06,0.0,0 STARLINK-3166,1 51462U 22010G   23159.04416159  .00000242  00000-0  33280-4 0  9991,2 51462  53.2168 113.6460 0001228  85.1147 274.9985 15.08833201 75473,6917.901,95.438,540.616,538.917,0.0
51462.0,STARLINK-3166,PAYLOAD,2023-06-08 13:46:40,15.08839447,0.0001169,53.2169,111.267,88.3031,271.8095,6.4562e-05,7.4e-06,0.0,0 STARLINK-3166,1 51462U 22010G   23159.57407747  .00000740  00000-0  64562-4 0  9992,2 51462  53.2169 111.2670 0001169  88.3031 271.8095 15.08839447 75085,6917.882,95.438,540.556,538.938,0.0
51462.0,STARLINK-3166,PAYLOAD,2023-06-09 04:05:08,15.0884022,0.0001285,53.2174,108.5919,93.0201,267.0939,1.0503e-05,-1.21e-06,0.0,0 STARLINK-3166,1 51462U 22010G   23160.17024007 -.00000121  00000-0  10503-4 0  9994,2 51462  53.2174 108.5919 0001285  93.0201 267.0939 15.08840220 75172,6917.88,95.438,540.634,538.856,0.0
51462.0,STARLINK-3166,PAYLOAD,2023-06-10 02:20:32,15.08838195,0.0001268,53.2175,104.4283,91.0753,269.0384,2.4504e-05,1.02e-06,0.0,0 STARLINK-3166,1 51462U 22010G   23161.09760264  .00000102  00000-0  24504-4 0  9992,2 51462  53.2175 104.4283 0001268  91.0753 269.0384 15.08838195 75784,6917.886,95.438,540.628,538.874,0.0
51462.0,STARLINK-3166,PAYLOAD,2023-06-10 13:28:14,15.08841,0.0001309,53.2179,102.3467,89.5303,270.5839,5.5069e-05,5.89e-06,0.0,0 STARLINK-3166,1 51462U 22010G   23161.56128023  .00000589  00000-0  55069-4 0  9994,2 51462  53.2179 102.3467 0001309  89.5303 270.5839 15.08841000 75385,6917.877,95.437,540.648,538.837,0.0
51462.0,STARLINK-3166,PAYLOAD,2023-06-11 05:22:05,15.0884336,0.0001349,53.2172,99.3717,90.5387,269.5759,9.0614e-05,1.155e-05,0.0,0 STARLINK-3166,1 51462U 22010G   23162.22367901  .00001155  00000-0  90614-4 0  9993,2 51462  53.2172  99.3717 0001349  90.5387 269.5759 15.08843360 75952,6917.87,95.437,540.668,538.802,0.0
51462.0,STARLINK-3166,PAYLOAD,2023-06-11 13:19:01,15.0884057,0.000134,53.2175,97.8844,91.7419,268.3727,7.2651e-05,8.69e-06,0.0,0 STARLINK-3166,1 51462U 22010G   23162.55488104  .00000869  00000-0  72651-4 0  9990,2 51462  53.2175  97.8844 0001340  91.7419 268.3727 15.08840570 75535,6917.879,95.438,540.671,538.817,0.0
51462.0,STARLINK-3166,PAYLOAD,2023-06-12 05:12:52,15.08846974,0.0001343,53.2177,94.91,96.9023,263.2122,0.00010289,1.35e-05,0.0,0 STARLINK-3166,1 51462U 22010G   23163.21727522  .00001350  00000-0  10289-3 0  9998,2 51462  53.2177  94.9100 0001343  96.9023 263.2122 15.08846974 75639,6917.859,95.437,540.653,538.795,0.0
51462.0,STARLINK-3166,PAYLOAD,2023-06-13 01:52:54,15.08839758,0.0001327,53.2169,91.0444,93.7395,266.3749,-7.4637e-06,-4.07e-06,0.0,0 STARLINK-3166,1 51462U 22010G   23164.07840305 -.00000407  00000-0 -74637-5 0  9991,2 51462  53.2169  91.0444 0001327  93.7395 266.3749 15.08839758 76236,6917.881,95.438,540.664,538.828,0.0
51462.0,STARLINK-3166,PAYLOAD,2023-06-13 19:22:08,15.08838684,0.0001242,53.2184,87.7742,99.6062,260.5071,-5.0593e-06,-3.68e-06,0.0,0 STARLINK-3166,1 51462U 22010G   23164.80704385 -.00000368  00000-0 -50593-5 0  9990,2 51462  53.2184  87.7742 0001242  99.6062 260.5071 15.08838684 75878,6917.884,95.438,540.609,538.89,0.0
51462.0,STARLINK-3166,PAYLOAD,2023-06-14 01:43:40,15.08843672,0.0001223,53.2187,86.5868,98.0634,262.0497,6.6176e-05,7.66e-06,0.0,0 STARLINK-3166,1 51462U 22010G   23165.07199837  .00000766  00000-0  66176-4 0  9993,2 51462  53.2187  86.5868 0001223  98.0634 262.0497 15.08843672 75911,6917.869,95.437,540.58,538.888,0.0
51462.0,STARLINK-3166,PAYLOAD,2023-06-14 19:12:56,15.08834359,0.0001113,53.2183,83.3168,102.0779,258.0337,1.8722e-06,-2.58e-06,0.0,0 STARLINK-3166,1 51462U 22010G   23165.80064834 -.00000258  00000-0  18722-5 0  9994,2 51462  53.2183  83.3168 0001113 102.0779 258.0337 15.08834359 76022,6917.898,95.438,540.533,538.993,0.0
51462.0,STARLINK-3166,PAYLOAD,2023-06-15 01:34:28,15.0883314,0.0001137,53.2185,82.1287,104.3869,255.7249,-3.4902e-05,-8.43e-06,0.0,0 STARLINK-3166,1 51462U 22010G   23166.06561086 -.00000843  00000-0 -34902-4 0  9992,2 51462  53.2185  82.1287 0001137 104.3869 255.7249 15.08833140 76533,6917.901,95.438,540.553,538.98,0.0
51462.0,STARLINK-3166,PAYLOAD,2023-06-16 01:25:15,15.08842803,0.0001164,53.2179,77.6682,115.8952,244.216,9.6887e-05,1.255e-05,0.0,0 STARLINK-3166,1 51462U 22010G   23167.05920411  .00001255  00000-0  96887-4 0  9999,2 51462  53.2179  77.6682 0001164 115.8952 244.2160 15.08842803 76681,6917.872,95.437,540.542,538.932,0.0
51462.0,STARLINK-3166,PAYLOAD,2023-06-16 10:57:33,15.08851183,9.82e-05,53.2175,75.882,96.3466,263.7637,9.1872e-05,1.175e-05,0.0,0 STARLINK-3166,1 51462U 22010G   23167.45663731  .00001175  00000-0  91872-4 0  9992,2 51462  53.2175  75.8820 0000982  96.3466 263.7637 15.08851183 76744,6917.846,95.437,540.391,539.032,0.0
51462.0,STARLINK-3166,PAYLOAD,2023-06-16 22:05:15,15.08843157,0.0001158,53.217,73.8007,95.9695,264.143,0.00015105,2.117e-05,0.0,0 STARLINK-3166,1 51462U 22010G   23167.92032069  .00002117  00000-0  15105-3 0  9999,2 51462  53.2170  73.8007 0001158  95.9695 264.1430 15.08843157 76815,6917.871,95.437,540.537,538.935,0.0
51462.0,STARLINK-3166,PAYLOAD,2023-06-17 10:48:22,15.08825441,0.0001764,53.2169,71.4216,78.0611,282.0579,-1.7074e-05,-5.6e-06,0.0,0 STARLINK-3166,1 51462U 22010G   23168.45026040 -.00000560  00000-0 -17074-4 0  9990,2 51462  53.2169  71.4216 0001764  78.0611 282.0579 15.08825441 76428,6917.925,95.438,541.01,538.57,0.0
51462.0,STARLINK-3166,PAYLOAD,2023-06-18 10:39:09,15.08837724,0.0001127,53.2181,66.962,75.1421,284.9696,-6.2941e-05,-1.289e-05,0.0,0 STARLINK-3166,1 51462U 22010G   23169.44385874 -.00001289  00000-0 -62941-4 0  9995,2 51462  53.2181  66.9620 0001127  75.1421 284.9696 15.08837724 76574,6917.887,95.438,540.532,538.973,0.0
